NORAD_CAT_ID,OBJECT_NAME,OBJECT_TYPE,EPOCH,MEAN_MOTION,ECCENTRICITY,INCLINATION,RA_OF_ASC_NODE,ARG_OF_PERICENTER,MEAN_ANOMALY,BSTAR,MEAN_MOTION_DOT,MEAN_MOTION_DDOT,TLE_LINE0,TLE_LINE1,TLE_LINE2,SEMIMAJOR_AXIS,PERIOD,APOGEE,PERIGEE,DECAYED
51970.0,STARLINK-3677,PAYLOAD,2023-09-14 20:50:30,15.06389713,0.0001448,53.0543,141.7794,79.5575,280.5577,-0.00018488,-3.033e-05,0.0,0 STARLINK-3677,1 51970U 22025Q   23257.86840457 -.00003033  00000-0 -18488-3 0  9997,2 51970  53.0543 141.7794 0001448  79.5575 280.5577 15.06389713 85338,6925.38,95.593,548.248,546.242,0.0
51970.0,STARLINK-3677,PAYLOAD,2023-09-15 01:37:07,15.06393112,0.0001441,53.0537,140.8869,83.5673,276.548,-2.1703e-05,-6.05e-06,0.0,0 STARLINK-3677,1 51970U 22025Q   23258.06744496 -.00000605  00000-0 -21703-4 0  9993,2 51970  53.0537 140.8869 0001441  83.5673 276.5480 15.06393112 84279,6925.37,95.593,548.233,546.237,0.0
51970.0,STARLINK-3677,PAYLOAD,2023-09-16 01:30:12,15.06405037,0.0001512,53.0535,136.4187,86.3772,273.739,0.00033108,4.654e-05,0.0,0 STARLINK-3677,1 51970U 22025Q   23259.06264636  .00004654  00000-0  33108-3 0  9994,2 51970  53.0535 136.4187 0001512  86.3772 273.7390 15.06405037 85518,6925.333,95.592,548.245,546.151,0.0
51970.0,STARLINK-3677,PAYLOAD,2023-09-17 01:23:18,15.06408965,0.0001659,53.0537,131.951,96.4675,263.6503,0.00046919,6.716e-05,0.0,0 STARLINK-3677,1 51970U 22025Q   23260.05785038  .00006716  00000-0  46919-3 0  9994,2 51970  53.0537 131.9510 0001659  96.4675 263.6503 15.06408965 85669,6925.321,95.592,548.335,546.037,0.0
51970.0,STARLINK-3677,PAYLOAD,2023-09-17 22:05:19,15.06403536,0.0001356,53.0532,128.0784,92.1044,268.01,0.00015284,1.996e-05,0.0,0 STARLINK-3677,1 51970U 22025Q   23260.92035960  .00001996  00000-0  15284-3 0  9998,2 51970  53.0532 128.0784 0001356  92.1044 268.0100 15.06403536 85796,6925.338,95.592,548.142,546.264,0.0
51970.0,STARLINK-3677,PAYLOAD,2023-09-18 20:22:52,15.06400493,0.0001355,53.0532,123.9077,93.2495,266.8649,0.00011495,1.431e-05,0.0,0 STARLINK-3677,1 51970U 22025Q   23261.84921693  .00001431  00000-0  11495-3 0  9991,2 51970  53.0532 123.9077 0001355  93.2495 266.8649 15.06400493 84844,6925.347,95.592,548.15,546.274,0.0
51970.0,STARLINK-3677,PAYLOAD,2023-09-18 23:33:56,15.06408326,0.0001348,53.0533,123.3136,94.5308,265.5835,0.00029054,4.05e-05,0.0,0 STARLINK-3677,1 51970U 22025Q   23261.98190791  .00004050  00000-0  29054-3 0  9993,2 51970  53.0533 123.3136 0001348  94.5308 265.5835 15.06408326 85953,6925.323,95.592,548.122,546.255,0.0
51970.0,STARLINK-3677,PAYLOAD,2023-09-20 01:02:33,15.0642596,0.0001263,53.0534,118.547,90.7511,269.3623,0.00064528,9.35e-05,0.0,0 STARLINK-3677,1 51970U 22025Q   23263.04344686  .00009350  00000-0  64528-3 0  9999,2 51970  53.0534 118.5470 0001263  90.7511 269.3623 15.06425960 86110,6925.269,95.59,548.009,546.259,0.0
51970.0,STARLINK-3677,PAYLOAD,2023-09-20 18:33:31,15.06384493,0.0001747,53.0532,115.2705,75.9208,284.1975,-0.00029628,-4.69e-05,0.0,0 STARLINK-3677,1 51970U 22025Q   23263.77327767 -.00004690  00000-0 -29628-3 0  9996,2 51970  53.0532 115.2705 0001747  75.9208 284.1975 15.06384493 86220,6925.396,95.593,548.471,546.051,0.0
51970.0,STARLINK-3677,PAYLOAD,2023-09-20 21:44:35,15.06386062,0.0001334,53.053,114.6725,93.1664,266.9477,-0.00025946,-4.142e-05,0.0,0 STARLINK-3677,1 51970U 22025Q   23263.90597195 -.00004142  00000-0 -25946-3 0  9996,2 51970  53.0530 114.6725 0001334  93.1664 266.9477 15.06386062 85153,6925.391,95.593,548.18,546.332,0.0
51970.0,STARLINK-3677,PAYLOAD,2023-09-21 18:26:36,15.06395906,0.00014,53.054,110.7992,90.6087,269.5063,0.00013153,1.678e-05,0.0,0 STARLINK-3677,1 51970U 22025Q   23264.76848314  .00001678  00000-0  13153-3 0  9999,2 51970  53.0540 110.7992 0001400  90.6087 269.5063 15.06395906 86374,6925.361,95.592,548.196,546.257,0.0
51970.0,STARLINK-3677,PAYLOAD,2023-09-21 23:13:13,15.06404095,0.0001418,53.054,109.9054,93.0111,267.104,0.00036039,5.091e-05,0.0,0 STARLINK-3677,1 51970U 22025Q   23264.96752211  .00005091  00000-0  36039-3 0  9992,2 51970  53.0540 109.9054 0001418  93.0111 267.1040 15.06404095 86400,6925.336,95.592,548.183,546.219,0.0
51970.0,STARLINK-3677,PAYLOAD,2023-09-22 18:19:42,15.06402704,0.000151,53.0533,106.3343,85.6932,274.423,0.00036445,5.151e-05,0.0,0 STARLINK-3677,1 51970U 22025Q   23265.76368818  .00005151  00000-0  36445-3 0  9995,2 51970  53.0533 106.3343 0001510  85.6932 274.4230 15.06402704 86525,6925.34,95.592,548.251,546.16,0.0
51970.0,STARLINK-3677,PAYLOAD,2023-09-22 19:55:14,15.06404313,0.0001506,53.0533,106.0364,85.8148,274.3013,0.00038746,5.495e-05,0.0,0 STARLINK-3677,1 51970U 22025Q   23265.83003454  .00005495  00000-0  38746-3 0  9992,2 51970  53.0533 106.0364 0001506  85.8148 274.3013 15.06404313 85447,6925.335,95.592,548.243,546.157,0.0
51970.0,STARLINK-3677,PAYLOAD,2023-09-22 23:06:19,15.06409114,0.0001472,53.0534,105.4394,87.6562,272.4595,0.00046757,6.691e-05,0.0,0 STARLINK-3677,1 51970U 22025Q   23265.96272625  .00006691  00000-0  46757-3 0  9994,2 51970  53.0534 105.4394 0001472  87.6562 272.4595 15.06409114 85466,6925.321,95.592,548.205,546.166,0.0
51970.0,STARLINK-3677,PAYLOAD,2023-09-23 18:12:47,15.0640199,0.0001539,53.0547,101.8663,86.6464,273.4701,6.874e-05,7.43e-06,0.0,0 STARLINK-3677,1 51970U 22025Q   23266.75888842  .00000743  00000-0  68740-4 0  9995,2 51970  53.0547 101.8663 0001539  86.6464 273.4701 15.06401990 86671,6925.342,95.592,548.273,546.142,0.0
51970.0,STARLINK-3677,PAYLOAD,2023-09-24 13:19:16,15.0640282,0.0001393,53.0537,98.2932,94.4701,265.6447,-8.219e-06,-4.04e-06,0.0,0 STARLINK-3677,1 51970U 22025Q   23267.55504924 -.00000404  00000-0 -82190-5 0  9992,2 51970  53.0537  98.2932 0001393  94.4701 265.6447 15.06402820 85703,6925.34,95.592,548.17,546.24,0.0
51970.0,STARLINK-3677,PAYLOAD,2023-09-24 18:05:53,15.06401208,0.0001347,53.054,97.3998,90.3797,269.7346,2.987e-05,1.64e-06,0.0,0 STARLINK-3677,1 51970U 22025Q   23267.75408990  .00000164  00000-0  29870-4 0  9996,2 51970  53.0540  97.3998 0001347  90.3797 269.7346 15.06401208 85733,6925.345,95.592,548.143,546.277,0.0
51970.0,STARLINK-3677,PAYLOAD,2023-09-25 05:14:39,15.06404404,0.0001355,53.054,95.315,88.4302,271.6842,9.9703e-05,1.204e-05,0.0,0 STARLINK-3677,1 51970U 22025Q   23268.21851603  .00001204  00000-0  99703-4 0  9999,2 51970  53.0540  95.3150 0001355  88.4302 271.6842 15.06404404 86892,6925.335,95.592,548.138,546.262,0.0
51970.0,STARLINK-3677,PAYLOAD,2023-09-25 11:36:49,15.06399087,0.0001403,53.0546,94.1251,87.5331,272.5819,0.00010526,1.287e-05,0.0,0 STARLINK-3677,1 51970U 22025Q   23268.48390618  .00001287  00000-0  10526-3 0  9998,2 51970  53.0546  94.1251 0001403  87.5331 272.5819 15.06399087 85841,6925.351,95.592,548.188,546.245,0.0
51970.0,STARLINK-3677,PAYLOAD,2023-09-25 19:34:31,15.06399592,0.0001379,53.0557,92.6358,88.3505,271.7642,6.8154e-05,7.34e-06,0.0,0 STARLINK-3677,1 51970U 22025Q   23268.81564143  .00000734  00000-0  68154-4 0  9998,2 51970  53.0557  92.6358 0001379  88.3505 271.7642 15.06399592 86980,6925.35,95.592,548.17,546.26,0.0
51970.0,STARLINK-3677,PAYLOAD,2023-09-26 19:27:37,15.06392824,0.0001399,53.0545,88.1667,87.5413,272.5736,5.2584e-05,5.02e-06,0.0,0 STARLINK-3677,1 51970U 22025Q   23269.81085240  .00000502  00000-0  52584-4 0  9998,2 51970  53.0545  88.1667 0001399  87.5413 272.5736 15.06392824 87133,6925.371,95.593,548.204,546.267,0.0
51970.0,STARLINK-3677,PAYLOAD,2023-09-26 21:03:09,15.06395495,0.0001408,53.0543,87.8689,91.9359,268.1792,7.8218e-05,8.84e-06,0.0,0 STARLINK-3677,1 51970U 22025Q   23269.87719702  .00000884  00000-0  78218-4 0  9996,2 51970  53.0543  87.8689 0001408  91.9359 268.1792 15.06395495 86050,6925.362,95.592,548.202,546.252,0.0
51970.0,STARLINK-3677,PAYLOAD,2023-09-27 11:23:01,15.06394306,0.0001408,53.0541,85.1881,86.5482,273.5668,0.00010672,1.308e-05,0.0,0 STARLINK-3677,1 51970U 22025Q   23270.47432088  .00001308  00000-0  10672-3 0  9994,2 51970  53.0541  85.1881 0001408  86.5482 273.5668 15.06394306 86142,6925.366,95.593,548.206,546.256,0.0
51970.0,STARLINK-3677,PAYLOAD,2023-09-28 11:16:06,15.0640104,0.0001483,53.0537,80.7197,85.154,274.9618,0.00017125,2.27e-05,0.0,0 STARLINK-3677,1 51970U 22025Q   23271.46952220  .00002270  00000-0  17125-3 0  9998,2 51970  53.0537  80.7197 0001483  85.1540 274.9618 15.06401040 87382,6925.345,95.592,548.237,546.183,0.0
51970.0,STARLINK-3677,PAYLOAD,2023-09-28 17:38:16,15.06404269,0.0001459,53.0538,79.5287,85.2336,274.8819,0.00020397,2.758e-05,0.0,0 STARLINK-3677,1 51970U 22025Q   23271.73490756  .00002758  00000-0  20397-3 0  9995,2 51970  53.0538  79.5287 0001459  85.2336 274.8819 15.06404269 86338,6925.335,95.592,548.211,546.19,0.0
51970.0,STARLINK-3677,PAYLOAD,2023-09-29 14:20:16,15.06402841,0.0001494,53.0547,75.6576,84.8208,275.2951,0.00013399,1.715e-05,0.0,0 STARLINK-3677,1 51970U 22025Q   23272.59741584  .00001715  00000-0  13399-3 0  9994,2 51970  53.0547  75.6576 0001494  84.8208 275.2951 15.06402841 86468,6925.34,95.592,548.239,546.17,0.0
51970.0,STARLINK-3677,PAYLOAD,2023-09-29 17:31:21,15.06405433,0.0001618,53.0549,75.0624,73.4297,286.687,0.00014048,1.812e-05,0.0,0 STARLINK-3677,1 51970U 22025Q   23272.73010856  .00001812  00000-0  14048-3 0  9991,2 51970  53.0549  75.0624 0001618  73.4297 286.6870 15.06405433 87577,6925.332,95.592,548.317,546.076,0.0
51970.0,STARLINK-3677,PAYLOAD,2023-09-29 22:17:58,15.06412475,0.0001502,53.0545,74.168,78.7314,281.3844,0.00023147,3.169e-05,0.0,0 STARLINK-3677,1 51970U 22025Q   23272.92914374  .00003169  00000-0  23147-3 0  9997,2 51970  53.0545  74.1680 0001502  78.7314 281.3844 15.06412475 87606,6925.31,95.591,548.216,546.135,0.0
51970.0,STARLINK-3677,PAYLOAD,2023-09-30 17:24:27,15.06398184,0.0001465,53.0542,70.5944,88.2036,271.9121,1.8935e-05,1e-08,0.0,0 STARLINK-3677,1 51970U 22025Q   23273.72531262  .00000001  00000-0  18935-4 0  9999,2 51970  53.0542  70.5944 0001465  88.2036 271.9121 15.06398184 87727,6925.354,95.592,548.234,546.205,0.0
